[{"OBJECT_NAME":"STARLINK-5960","OBJECT_ID":"2023-083AW","EPOCH":"2026-03-09T22:00:01.999584","MEAN_MOTION":15.06681708,"ECCENTRICITY":0.00012025,"INCLINATION":43.0005,"RA_OF_ASC_NODE":67.3488,"ARG_OF_PERICENTER":306.9912,"MEAN_ANOMALY":164.9708,"EPHEMERIS_TYPE":0,"CLASSIFICATION_TYPE":"U","NORAD_CAT_ID":56920,"ELEMENT_SET_NO":999,"REV_AT_EPOCH":577,"BSTAR":0.0042766737,"MEAN_MOTION_DOT":0.00064947,"MEAN_MOTION_DDOT":0},{"OBJECT_NAME":"YUNYAO-1 46","OBJECT_ID":"2025-059D","EPOCH":"2026-03-09T22:34:36.342624","MEAN_MOTION":15.10325082,"ECCENTRICITY":0.00132847,"INCLINATION":97.6091,"RA_OF_ASC_NODE":250.9055,"ARG_OF_PERICENTER":123.8801,"MEAN_ANOMALY":236.3694,"EPHEMERIS_TYPE":0,"CLASSIFICATION_TYPE":"U","NORAD_CAT_ID":63347,"ELEMENT_SET_NO":999,"REV_AT_EPOCH":5331,"BSTAR":0.0002771923,"MEAN_MOTION_DOT":4.488e-5,"MEAN_MOTION_DDOT":0}]
